[{"OBJECT_NAME":"NUSAT-38 (MARIA AGNESI)","OBJECT_ID":"2023-054AA","EPOCH":"2026-03-09T23:32:56.689152","MEAN_MOTION":15.43783893,"ECCENTRICITY":0.00161894,"INCLINATION":97.3125,"RA_OF_ASC_NODE":338.4726,"ARG_OF_PERICENTER":64.5493,"MEAN_ANOMALY":295.7428,"EPHEMERIS_TYPE":0,"CLASSIFICATION_TYPE":"U","NORAD_CAT_ID":56202,"ELEMENT_SET_NO":999,"REV_AT_EPOCH":16317,"BSTAR":0.00076205358,"MEAN_MOTION_DOT":0.00034663,"MEAN_MOTION_DDOT":0},{"OBJECT_NAME":"FLOCK 4Q-11","OBJECT_ID":"2023-174T","EPOCH":"2026-03-09T22:58:16.261824","MEAN_MOTION":15.45173932,"ECCENTRICITY":0.00077811,"INCLINATION":97.3894,"RA_OF_ASC_NODE":155.5718,"ARG_OF_PERICENTER":154.8881,"MEAN_ANOMALY":205.2748,"EPHEMERIS_TYPE":0,"CLASSIFICATION_TYPE":"U","NORAD_CAT_ID":58273,"ELEMENT_SET_NO":999,"REV_AT_EPOCH":13024,"BSTAR":0.00060116033,"MEAN_MOTION_DOT":0.00028516,"MEAN_MOTION_DDOT":0}]
